{
  "type": "FeatureCollection",
  "features": [
    {
      "type": "Feature",
      "properties": {
        "norad_id": 65729,
        "name": "DRAGONFLY",
        "group": "stations",
        "lat": -48.48702025213156,
        "lon": 88.88020627441043,
        "alt_km": 358.3658758437841,
        "timestamp": "2025-12-09T11:33:53.592593+00:00",
        "meta_object_name": "DRAGONFLY",
        "meta_object_id": "1998-067XH",
        "meta_epoch": "2025-12-08T17:32:47.526432",
        "meta_mean_motion": 15.70229086,
        "meta_eccentricity": 0.00065245,
        "meta_inclination": 51.6249,
        "meta_ra_of_asc_node": 156.265,
        "meta_arg_of_pericenter": 251.495,
        "meta_mean_anomaly": 108.5339,
        "meta_ephemeris_type": 0,
        "meta_classification_type": "U",
        "meta_norad_cat_id": 65729,
        "meta_element_set_no": 999,
        "meta_rev_at_epoch": 1253,
        "meta_bstar": 0.0013272482,
        "meta_mean_motion_dot": 0.00167478,
        "meta_mean_motion_ddot": 0,
        "tle_line1": "1 65729U 98067XH  25342.73110563  .00167478  00000+0  13272-2 0  9990",
        "tle_line2": "2 65729  51.6249 156.2650 0006524 251.4950 108.5339 15.70229086 12536"
      },
      "geometry": {
        "type": "Point",
        "coordinates": [
          88.88020627441043,
          -48.48702025213156
        ]
      }
    },
    {
      "type": "Feature",
      "properties": {
        "norad_id": 65731,
        "name": "1998-067XK",
        "group": "stations",
        "lat": 15.781655817922701,
        "lon": 166.68970400554926,
        "alt_km": 375.4010506582508,
        "timestamp": "2025-12-09T11:33:53.592606+00:00",
        "meta_object_name": "1998-067XK",
        "meta_object_id": "1998-067XK",
        "meta_epoch": "2025-12-08T17:05:09.004992",
        "meta_mean_motion": 15.64723492,
        "meta_eccentricity": 0.0005404,
        "meta_inclination": 51.628,
        "meta_ra_of_asc_node": 157.6517,
        "meta_arg_of_pericenter": 220.4904,
        "meta_mean_anomaly": 139.5689,
        "meta_ephemeris_type": 0,
        "meta_classification_type": "U",
        "meta_norad_cat_id": 65731,
        "meta_element_set_no": 999,
        "meta_rev_at_epoch": 1251,
        "meta_bstar": 0.0010051,
        "meta_mean_motion_dot": 0.00100336,
        "meta_mean_motion_ddot": 0,
        "tle_line1": "1 65731U 98067XK  25342.71190978  .00100336  00000+0  10051-2 0  9991",
        "tle_line2": "2 65731  51.6280 157.6517 0005404 220.4904 139.5689 15.64723492 12515"
      },
      "geometry": {
        "type": "Point",
        "coordinates": [
          166.68970400554926,
          15.781655817922701
        ]
      }
    },
    {
      "type": "Feature",
      "properties": {
        "norad_id": 65732,
        "name": "RSP-03",
        "group": "stations",
        "lat": -29.910620221859514,
        "lon": 125.99488584360374,
        "alt_km": 369.87017504592495,
        "timestamp": "2025-12-09T11:33:53.592616+00:00",
        "meta_object_name": "RSP-03",
        "meta_object_id": "1998-067XL",
        "meta_epoch": "2025-12-08T18:54:04.824576",
        "meta_mean_motion": 15.67324417,
        "meta_eccentricity": 0.00061707,
        "meta_inclination": 51.626,
        "meta_ra_of_asc_node": 156.6485,
        "meta_arg_of_pericenter": 224.9015,
        "meta_mean_anomaly": 135.1483,
        "meta_ephemeris_type": 0,
        "meta_classification_type": "U",
        "meta_norad_cat_id": 65732,
        "meta_element_set_no": 999,
        "meta_rev_at_epoch": 1254,
        "meta_bstar": 0.0012544744,
        "meta_mean_motion_dot": 0.00139916,
        "meta_mean_motion_ddot": 0,
        "tle_line1": "1 65732U 98067XL  25342.78755584  .00139916  00000+0  12545-2 0  9995",
        "tle_line2": "2 65732  51.6260 156.6485 0006170 224.9015 135.1483 15.67324417 12544"
      },
      "geometry": {
        "type": "Point",
        "coordinates": [
          125.99488584360374,
          -29.910620221859514
        ]
      }
    },
    {
      "type": "Feature",
      "properties": {
        "norad_id": 65733,
        "name": "GHS-01",
        "group": "stations",
        "lat": 8.532396315933186,
        "lon": -34.8967759652706,
        "alt_km": 349.4852463210964,
        "timestamp": "2025-12-09T11:33:53.592627+00:00",
        "meta_object_name": "GHS-01",
        "meta_object_id": "1998-067XM",
        "meta_epoch": "2025-12-09T00:10:31.774080",
        "meta_mean_motion": 15.72845555,
        "meta_eccentricity": 0.0006877,
        "meta_inclination": 51.6283,
        "meta_ra_of_asc_node": 154.3653,
        "meta_arg_of_pericenter": 253.5848,
        "meta_mean_anomaly": 106.4394,
        "meta_ephemeris_type": 0,
        "meta_classification_type": "U",
        "meta_norad_cat_id": 65733,
        "meta_element_set_no": 999,
        "meta_rev_at_epoch": 1259,
        "meta_bstar": 0.0015001,
        "meta_mean_motion_dot": 0.0021266,
        "meta_mean_motion_ddot": 0,
        "tle_line1": "1 65733U 98067XM  25343.00731220  .00212660  00000+0  15001-2 0  9991",
        "tle_line2": "2 65733  51.6283 154.3653 0006877 253.5848 106.4394 15.72845555 12592"
      },
      "geometry": {
        "type": "Point",
        "coordinates": [
          -34.8967759652706,
          8.532396315933186
        ]
      }
    },
    {
      "type": "Feature",
      "properties": {
        "norad_id": 65941,
        "name": "YOTSUBA-KULOVER",
        "group": "stations",
        "lat": -25.89448723844086,
        "lon": -1.0343150393309541,
        "alt_km": 393.2535566894858,
        "timestamp": "2025-12-09T11:33:53.592638+00:00",
        "meta_object_name": "YOTSUBA-KULOVER",
        "meta_object_id": "1998-067XN",
        "meta_epoch": "2025-12-08T16:11:16.679040",
        "meta_mean_motion": 15.58725095,
        "meta_eccentricity": 0.00016918,
        "meta_inclination": 51.6278,
        "meta_ra_of_asc_node": 160.3988,
        "meta_arg_of_pericenter": 209.1564,
        "meta_mean_anomaly": 150.9334,
        "meta_ephemeris_type": 0,
        "meta_classification_type": "U",
        "meta_norad_cat_id": 65941,
        "meta_element_set_no": 999,
        "meta_rev_at_epoch": 922,
        "meta_bstar": 0.00092611573,
        "meta_mean_motion_dot": 0.00072881,
        "meta_mean_motion_ddot": 0,
        "tle_line1": "1 65941U 98067XN  25342.67449860  .00072881  00000+0  92612-3 0  9993",
        "tle_line2": "2 65941  51.6278 160.3988 0001691 209.1564 150.9334 15.58725095  9220"
      },
      "geometry": {
        "type": "Point",
        "coordinates": [
          -1.0343150393309541,
          -25.89448723844086
        ]
      }
    },
    {
      "type": "Feature",
      "properties": {
        "norad_id": 65942,
        "name": "BOTAN",
        "group": "stations",
        "lat": 27.377769604447582,
        "lon": -48.485593361239054,
        "alt_km": 377.59265977885207,
        "timestamp": "2025-12-09T11:33:53.592648+00:00",
        "meta_object_name": "BOTAN",
        "meta_object_id": "1998-067XP",
        "meta_epoch": "2025-12-08T16:31:24.604608",
        "meta_mean_motion": 15.61763471,
        "meta_eccentricity": 0.00036454,
        "meta_inclination": 51.6288,
        "meta_ra_of_asc_node": 159.7433,
        "meta_arg_of_pericenter": 204.4965,
        "meta_mean_anomaly": 155.5857,
        "meta_ephemeris_type": 0,
        "meta_classification_type": "U",
        "meta_norad_cat_id": 65942,
        "meta_element_set_no": 999,
        "meta_rev_at_epoch": 923,
        "meta_bstar": 0.0012577931,
        "meta_mean_motion_dot": 0.00112002,
        "meta_mean_motion_ddot": 0,
        "tle_line1": "1 65942U 98067XP  25342.68847922  .00112002  00000+0  12578-2 0  9998",
        "tle_line2": "2 65942  51.6288 159.7433 0003645 204.4965 155.5857 15.61763471  9239"
      },
      "geometry": {
        "type": "Point",
        "coordinates": [
          -48.485593361239054,
          27.377769604447582
        ]
      }
    },
    {
      "type": "Feature",
      "properties": {
        "norad_id": 65943,
        "name": "E-KAGAKU-1",
        "group": "stations",
        "lat": -25.75096606717725,
        "lon": -1.1818242517229975,
        "alt_km": 392.93571263890954,
        "timestamp": "2025-12-09T11:33:53.592659+00:00",
        "meta_object_name": "E-KAGAKU-1",
        "meta_object_id": "1998-067XQ",
        "meta_epoch": "2025-12-08T17:43:35.861664",
        "meta_mean_motion": 15.58651727,
        "meta_eccentricity": 0.00029774,
        "meta_inclination": 51.6297,
        "meta_ra_of_asc_node": 160.0822,
        "meta_arg_of_pericenter": 178.8942,
        "meta_mean_anomaly": 181.2057,
        "meta_ephemeris_type": 0,
        "meta_classification_type": "U",
        "meta_norad_cat_id": 65943,
        "meta_element_set_no": 999,
        "meta_rev_at_epoch": 923,
        "meta_bstar": 0.00085624806,
        "meta_mean_motion_dot": 0.00067115,
        "meta_mean_motion_ddot": 0,
        "tle_line1": "1 65943U 98067XQ  25342.73860951  .00067115  00000+0  85625-3 0  9990",
        "tle_line2": "2 65943  51.6297 160.0822 0002977 178.8942 181.2057 15.58651727  9237"
      },
      "geometry": {
        "type": "Point",
        "coordinates": [
          -1.1818242517229975,
          -25.75096606717725
        ]
      }
    }
  ]
}